IRIDIUM 39              
1 25042U 97069D   26013.21718637  .00000602  00000+0  15152-3 0  9995
2 25042  86.3933 121.1339 0016390 330.4604  29.5672 14.49562372479381
IRIDIUM 38              
1 25043U 97069E   26013.07518328  .00000408  00000+0  12741-3 0  9990
2 25043  86.3995 144.9337 0003786 112.0145 248.1456 14.38351926476127
IRIDIUM 42              
1 25077U 97077A   26012.92227087  .00000352  00000+0  11304-3 0  9990
2 25077  86.4002 151.4253 0002531 109.1996 250.9475 14.36565404471305
IRIDIUM 44              
1 25078U 97077B   26013.07426445  .00000322  00000+0  94953-4 0  9996
2 25078  86.3991 132.7348 0003756  77.6207 282.5413 14.40463545473913
IRIDIUM 45              
1 25104U 97082A   26013.21629083  .00020684  00000+0  55789-3 0  9997
2 25104  86.3551 305.1417 0090469 258.9104 100.1963 15.33515818484095
IRIDIUM 24              
1 25105U 97082B   26013.19066924  .00000380  00000+0  10886-3 0  9994
2 25105  86.3924 351.2053 0013492 101.5145 258.7571 14.42365186473483
IRIDIUM 51              
1 25262U 98018A   26013.21919497  .00127337  00000+0  98209-3 0  9990
2 25262  86.3709 309.9913 0047276 142.1959 218.2649 15.70035567479576
IRIDIUM 57              
1 25273U 98019B   26013.19729617  .00000281  00000+0  89985-4 0  9993
2 25273  86.3928  57.1904 0002319  93.3781 266.7682 14.36077623454929
